{
  "type": "FeatureCollection",
  "features": [
    {
      "type": "Feature",
      "properties": {
        "norad_id": 31150,
        "name": "FENGYUN 1C DEB",
        "group": "fengyun-1c-debris",
        "lat": 75.45072031206963,
        "lon": -135.71398187290063,
        "alt_km": 832.2312429312551,
        "timestamp": "2025-12-25T22:42:17.292064+00:00",
        "meta_object_name": "FENGYUN 1C DEB",
        "meta_object_id": "1999-025BHC",
        "meta_epoch": "2025-12-25T00:15:03.050208",
        "meta_mean_motion": 14.12740244,
        "meta_eccentricity": 0.00157513,
        "meta_inclination": 98.6855,
        "meta_ra_of_asc_node": 7.2947,
        "meta_arg_of_pericenter": 125.9436,
        "meta_mean_anomaly": 260.2376,
        "meta_ephemeris_type": 0,
        "meta_classification_type": "U",
        "meta_norad_cat_id": 31150,
        "meta_element_set_no": 999,
        "meta_rev_at_epoch": 96470,
        "meta_bstar": 0.00014343287,
        "meta_mean_motion_dot": 2.24e-06,
        "meta_mean_motion_ddot": 0,
        "tle_line1": "1 31150U 99025BHC 25359.01045197  .00000224  00000+0  14343-3 0  9991",
        "tle_line2": "2 31150  98.6855   7.2947 0015751 125.9436 260.2376 14.12740244964702"
      },
      "geometry": {
        "type": "Point",
        "coordinates": [
          -135.71398187290063,
          75.45072031206963
        ]
      }
    },
    {
      "type": "Feature",
      "properties": {
        "norad_id": 31151,
        "name": "FENGYUN 1C DEB",
        "group": "fengyun-1c-debris",
        "lat": 12.699184234121686,
        "lon": -171.98960008237353,
        "alt_km": 846.8875135566386,
        "timestamp": "2025-12-25T22:42:17.292073+00:00",
        "meta_object_name": "FENGYUN 1C DEB",
        "meta_object_id": "1999-025BHD",
        "meta_epoch": "2025-12-22T11:24:18.125856",
        "meta_mean_motion": 14.25906921,
        "meta_eccentricity": 0.00563274,
        "meta_inclination": 99.1351,
        "meta_ra_of_asc_node": 2.3164,
        "meta_arg_of_pericenter": 357.1221,
        "meta_mean_anomaly": 2.9626,
        "meta_ephemeris_type": 0,
        "meta_classification_type": "U",
        "meta_norad_cat_id": 31151,
        "meta_element_set_no": 999,
        "meta_rev_at_epoch": 96113,
        "meta_bstar": 0.0023357835,
        "meta_mean_motion_dot": 5.613e-05,
        "meta_mean_motion_ddot": 0,
        "tle_line1": "1 31151U 99025BHD 25356.47520979  .00005613  00000+0  23358-2 0  9997",
        "tle_line2": "2 31151  99.1351   2.3164 0056327 357.1221   2.9626 14.25906921961135"
      },
      "geometry": {
        "type": "Point",
        "coordinates": [
          -171.98960008237353,
          12.699184234121686
        ]
      }
    },
    {
      "type": "Feature",
      "properties": {
        "norad_id": 31152,
        "name": "FENGYUN 1C DEB",
        "group": "fengyun-1c-debris",
        "lat": 3.501364620104456,
        "lon": -14.28776272395798,
        "alt_km": 683.3590744490266,
        "timestamp": "2025-12-25T22:42:17.292083+00:00",
        "meta_object_name": "FENGYUN 1C DEB",
        "meta_object_id": "1999-025BHE",
        "meta_epoch": "2025-12-24T10:36:14.536224",
        "meta_mean_motion": 14.35857873,
        "meta_eccentricity": 0.01294685,
        "meta_inclination": 98.4153,
        "meta_ra_of_asc_node": 344.7627,
        "meta_arg_of_pericenter": 358.5548,
        "meta_mean_anomaly": 154.0061,
        "meta_ephemeris_type": 0,
        "meta_classification_type": "U",
        "meta_norad_cat_id": 31152,
        "meta_element_set_no": 999,
        "meta_rev_at_epoch": 98216,
        "meta_bstar": 0.00011929315,
        "meta_mean_motion_dot": 3.34e-06,
        "meta_mean_motion_ddot": 0,
        "tle_line1": "1 31152U 99025BHE 25358.44183491  .00000334  00000+0  11929-3 0  9998",
        "tle_line2": "2 31152  98.4153 344.7627 0129468 358.5548 154.0061 14.35857873982169"
      },
      "geometry": {
        "type": "Point",
        "coordinates": [
          -14.28776272395798,
          3.501364620104456
        ]
      }
    },
    {
      "type": "Feature",
      "properties": {
        "norad_id": 31155,
        "name": "FENGYUN 1C DEB",
        "group": "fengyun-1c-debris",
        "lat": 47.36481101939942,
        "lon": 58.94427882807753,
        "alt_km": 852.160395415106,
        "timestamp": "2025-12-25T22:42:17.292093+00:00",
        "meta_object_name": "FENGYUN 1C DEB",
        "meta_object_id": "1999-025BHH",
        "meta_epoch": "2025-12-25T15:39:32.131008",
        "meta_mean_motion": 14.08376104,
        "meta_eccentricity": 0.008876,
        "meta_inclination": 99.0404,
        "meta_ra_of_asc_node": 68.608,
        "meta_arg_of_pericenter": 326.1496,
        "meta_mean_anomaly": 33.4026,
        "meta_ephemeris_type": 0,
        "meta_classification_type": "U",
        "meta_norad_cat_id": 31155,
        "meta_element_set_no": 999,
        "meta_rev_at_epoch": 95769,
        "meta_bstar": 0.0011516,
        "meta_mean_motion_dot": 1.999e-05,
        "meta_mean_motion_ddot": 0,
        "tle_line1": "1 31155U 99025BHH 25359.65245522  .00001999  00000+0  11516-2 0  9998",
        "tle_line2": "2 31155  99.0404  68.6080 0088760 326.1496  33.4026 14.08376104957699"
      },
      "geometry": {
        "type": "Point",
        "coordinates": [
          58.94427882807753,
          47.36481101939942
        ]
      }
    },
    {
      "type": "Feature",
      "properties": {
        "norad_id": 31157,
        "name": "FENGYUN 1C DEB",
        "group": "fengyun-1c-debris",
        "lat": -56.68104056423237,
        "lon": -3.9135486554874475,
        "alt_km": 754.4243986208357,
        "timestamp": "2025-12-25T22:42:17.292103+00:00",
        "meta_object_name": "FENGYUN 1C DEB",
        "meta_object_id": "1999-025BHK",
        "meta_epoch": "2025-12-25T04:24:12.072384",
        "meta_mean_motion": 14.22581375,
        "meta_eccentricity": 0.0099325,
        "meta_inclination": 98.4826,
        "meta_ra_of_asc_node": 342.2302,
        "meta_arg_of_pericenter": 290.1653,
        "meta_mean_anomaly": 68.8863,
        "meta_ephemeris_type": 0,
        "meta_classification_type": "U",
        "meta_norad_cat_id": 31157,
        "meta_element_set_no": 999,
        "meta_rev_at_epoch": 97160,
        "meta_bstar": 0.00030637,
        "meta_mean_motion_dot": 6.77e-06,
        "meta_mean_motion_ddot": 0,
        "tle_line1": "1 31157U 99025BHK 25359.18347306  .00000677  00000+0  30637-3 0  9999",
        "tle_line2": "2 31157  98.4826 342.2302 0099325 290.1653  68.8863 14.22581375971606"
      },
      "geometry": {
        "type": "Point",
        "coordinates": [
          -3.9135486554874475,
          -56.68104056423237
        ]
      }
    },
    {
      "type": "Feature",
      "properties": {
        "norad_id": 31158,
        "name": "FENGYUN 1C DEB",
        "group": "fengyun-1c-debris",
        "lat": -77.37980902654014,
        "lon": -144.86686019600702,
        "alt_km": 790.269421177708,
        "timestamp": "2025-12-25T22:42:17.292117+00:00",
        "meta_object_name": "FENGYUN 1C DEB",
        "meta_object_id": "1999-025BHL",
        "meta_epoch": "2025-12-21T11:56:21.493536",
        "meta_mean_motion": 14.33299733,
        "meta_eccentricity": 0.00468097,
        "meta_inclination": 98.7797,
        "meta_ra_of_asc_node": 74.2735,
        "meta_arg_of_pericenter": 8.2217,
        "meta_mean_anomaly": 351.9724,
        "meta_ephemeris_type": 0,
        "meta_classification_type": "U",
        "meta_norad_cat_id": 31158,
        "meta_element_set_no": 999,
        "meta_rev_at_epoch": 64605,
        "meta_bstar": 0.0012542591,
        "meta_mean_motion_dot": 3.451e-05,
        "meta_mean_motion_ddot": 0,
        "tle_line1": "1 31158U 99025BHL 25355.49747099  .00003451  00000+0  12543-2 0  9991",
        "tle_line2": "2 31158  98.7797  74.2735 0046809   8.2217 351.9724 14.33299733646058"
      },
      "geometry": {
        "type": "Point",
        "coordinates": [
          -144.86686019600702,
          -77.37980902654014
        ]
      }
    },
    {
      "type": "Feature",
      "properties": {
        "norad_id": 31159,
        "name": "FENGYUN 1C DEB",
        "group": "fengyun-1c-debris",
        "lat": 32.76007784470514,
        "lon": -44.65696245793977,
        "alt_km": 414.19171057762196,
        "timestamp": "2025-12-25T22:42:17.292127+00:00",
        "meta_object_name": "FENGYUN 1C DEB",
        "meta_object_id": "1999-025BHM",
        "meta_epoch": "2025-12-25T03:51:07.680384",
        "meta_mean_motion": 15.40087027,
        "meta_eccentricity": 0.0105705,
        "meta_inclination": 97.8001,
        "meta_ra_of_asc_node": 319.5662,
        "meta_arg_of_pericenter": 329.563,
        "meta_mean_anomaly": 29.9504,
        "meta_ephemeris_type": 0,
        "meta_classification_type": "U",
        "meta_norad_cat_id": 31159,
        "meta_element_set_no": 999,
        "meta_rev_at_epoch": 99744,
        "meta_bstar": 0.0016351,
        "meta_mean_motion_dot": 0.00080319,
        "meta_mean_motion_ddot": 0,
        "tle_line1": "1 31159U 99025BHM 25359.16050556  .00080319  00000+0  16351-2 0  9994",
        "tle_line2": "2 31159  97.8001 319.5662 0105705 329.5630  29.9504 15.40087027997440"
      },
      "geometry": {
        "type": "Point",
        "coordinates": [
          -44.65696245793977,
          32.76007784470514
        ]
      }
    }
  ]
}